[
  {
    "OBJECT_NAME": "STARLINK-4425",
    "OBJECT_ID": "22084V",
    "EPOCH": "2025-11-11T04:28:00.523488",
    "MEAN_MOTION": 15.0127135,
    "ECCENTRICITY": 8.73e-05,
    "INCLINATION": 97.6055,
    "RA_OF_ASC_NODE": 14.1945,
    "ARG_OF_PERICENTER": 117.5117,
    "MEAN_ANOMALY": 242.6197,
    "EPHEMERIS_TYPE": 0,
    "CLASSIFICATION_TYPE": "U",
    "NORAD_CAT_ID": 53208,
    "ELEMENT_SET_NO": 999,
    "REV_AT_EPOCH": 18153,
    "BSTAR": 0.0,
    "MEAN_MOTION_DOT": -6.2e-07,
    "MEAN_MOTION_DDOT": 0.0,
    "TLE_LINE1": "1 53208U 22084V   25315.18611717 -.00000062  00000+0 -25513-6 0  9993",
    "TLE_LINE2": "2 53208  97.6055  14.1945 0000873 117.5117 242.6197 15.01271350181531",
    "COMMENT": "Grouped by shell and plane from TLE"
  },
  {
    "OBJECT_NAME": "STARLINK-4423",
    "OBJECT_ID": "22084W",
    "EPOCH": "2025-11-11T04:15:02.497536",
    "MEAN_MOTION": 15.01273396,
    "ECCENTRICITY": 0.0002839,
    "INCLINATION": 97.6033,
    "RA_OF_ASC_NODE": 14.1853,
    "ARG_OF_PERICENTER": 84.0291,
    "MEAN_ANOMALY": 276.1257,
    "EPHEMERIS_TYPE": 0,
    "CLASSIFICATION_TYPE": "U",
    "NORAD_CAT_ID": 53209,
    "ELEMENT_SET_NO": 999,
    "REV_AT_EPOCH": 18153,
    "BSTAR": 0.0,
    "MEAN_MOTION_DOT": -2.11e-06,
    "MEAN_MOTION_DDOT": 0.0,
    "TLE_LINE1": "1 53209U 22084W   25315.17711224 -.00000211  00000+0 -11846-4 0  9995",
    "TLE_LINE2": "2 53209  97.6033  14.1853 0002839  84.0291 276.1257 15.01273396181532",
    "COMMENT": "Grouped by shell and plane from TLE"
  },
  {
    "OBJECT_NAME": "STARLINK-4427",
    "OBJECT_ID": "22084X",
    "EPOCH": "2025-11-11T04:22:40.954080",
    "MEAN_MOTION": 15.01263873,
    "ECCENTRICITY": 0.0001869,
    "INCLINATION": 97.6048,
    "RA_OF_ASC_NODE": 14.1909,
    "ARG_OF_PERICENTER": 88.6643,
    "MEAN_ANOMALY": 271.4796,
    "EPHEMERIS_TYPE": 0,
    "CLASSIFICATION_TYPE": "U",
    "NORAD_CAT_ID": 53210,
    "ELEMENT_SET_NO": 999,
    "REV_AT_EPOCH": 18207,
    "BSTAR": 9.0852e-05,
    "MEAN_MOTION_DOT": 1.109e-05,
    "MEAN_MOTION_DDOT": 0.0,
    "TLE_LINE1": "1 53210U 22084X   25315.18241845  .00001109  00000+0  90852-4 0  9994",
    "TLE_LINE2": "2 53210  97.6048  14.1909 0001869  88.6643 271.4796 15.01263873182070",
    "COMMENT": "Grouped by shell and plane from TLE"
  },
  {
    "OBJECT_NAME": "STARLINK-4416",
    "OBJECT_ID": "22084Z",
    "EPOCH": "2025-11-11T03:32:59.012736",
    "MEAN_MOTION": 15.05650237,
    "ECCENTRICITY": 0.0001505,
    "INCLINATION": 97.6019,
    "RA_OF_ASC_NODE": 14.3681,
    "ARG_OF_PERICENTER": 101.1739,
    "MEAN_ANOMALY": 258.9657,
    "EPHEMERIS_TYPE": 0,
    "CLASSIFICATION_TYPE": "U",
    "NORAD_CAT_ID": 53212,
    "ELEMENT_SET_NO": 999,
    "REV_AT_EPOCH": 18153,
    "BSTAR": 7.128600000000001e-05,
    "MEAN_MOTION_DOT": 9.68e-06,
    "MEAN_MOTION_DDOT": 0.0,
    "TLE_LINE1": "1 53212U 22084Z   25315.14790524  .00000968  00000+0  71286-4 0  9997",
    "TLE_LINE2": "2 53212  97.6019  14.3681 0001505 101.1739 258.9657 15.05650237181537",
    "COMMENT": "Grouped by shell and plane from TLE"
  },
  {
    "OBJECT_NAME": "STARLINK-4414",
    "OBJECT_ID": "22084AA",
    "EPOCH": "2025-11-11T02:25:20.593920",
    "MEAN_MOTION": 15.01272242,
    "ECCENTRICITY": 0.0003153,
    "INCLINATION": 97.6027,
    "RA_OF_ASC_NODE": 14.1025,
    "ARG_OF_PERICENTER": 87.8787,
    "MEAN_ANOMALY": 272.2798,
    "EPHEMERIS_TYPE": 0,
    "CLASSIFICATION_TYPE": "U",
    "NORAD_CAT_ID": 53213,
    "ELEMENT_SET_NO": 999,
    "REV_AT_EPOCH": 18204,
    "BSTAR": 0.0007006299999999999,
    "MEAN_MOTION_DOT": 8.956e-05,
    "MEAN_MOTION_DDOT": 0.0,
    "TLE_LINE1": "1 53213U 22084AA  25315.10093280  .00008956  00000+0  70063-3 0  9995",
    "TLE_LINE2": "2 53213  97.6027  14.1025 0003153  87.8787 272.2798 15.01272242182045",
    "COMMENT": "Grouped by shell and plane from TLE"
  },
  {
    "OBJECT_NAME": "STARLINK-4353",
    "OBJECT_ID": "22084AB",
    "EPOCH": "2025-11-11T04:12:01.163808",
    "MEAN_MOTION": 15.01263823,
    "ECCENTRICITY": 0.0002778,
    "INCLINATION": 97.6037,
    "RA_OF_ASC_NODE": 14.1832,
    "ARG_OF_PERICENTER": 77.1062,
    "MEAN_ANOMALY": 283.0473,
    "EPHEMERIS_TYPE": 0,
    "CLASSIFICATION_TYPE": "U",
    "NORAD_CAT_ID": 53214,
    "ELEMENT_SET_NO": 999,
    "REV_AT_EPOCH": 18153,
    "BSTAR": 6.459e-05,
    "MEAN_MOTION_DOT": 7.71e-06,
    "MEAN_MOTION_DDOT": 0.0,
    "TLE_LINE1": "1 53214U 22084AB  25315.17501347  .00000771  00000+0  64590-4 0  9997",
    "TLE_LINE2": "2 53214  97.6037  14.1832 0002778  77.1062 283.0473 15.01263823181531",
    "COMMENT": "Grouped by shell and plane from TLE"
  },
  {
    "OBJECT_NAME": "STARLINK-4335",
    "OBJECT_ID": "22084AC",
    "EPOCH": "2025-11-11T03:09:03.565728",
    "MEAN_MOTION": 15.0565305,
    "ECCENTRICITY": 8.71e-05,
    "INCLINATION": 97.6045,
    "RA_OF_ASC_NODE": 14.3619,
    "ARG_OF_PERICENTER": 119.6777,
    "MEAN_ANOMALY": 240.4537,
    "EPHEMERIS_TYPE": 0,
    "CLASSIFICATION_TYPE": "U",
    "NORAD_CAT_ID": 53215,
    "ELEMENT_SET_NO": 999,
    "REV_AT_EPOCH": 18206,
    "BSTAR": 4.3071e-05,
    "MEAN_MOTION_DOT": 5.61e-06,
    "MEAN_MOTION_DDOT": 0.0,
    "TLE_LINE1": "1 53215U 22084AC  25315.13129127  .00000561  00000+0  43071-4 0  9994",
    "TLE_LINE2": "2 53215  97.6045  14.3619 0000871 119.6777 240.4537 15.05653050182069",
    "COMMENT": "Grouped by shell and plane from TLE"
  },
  {
    "OBJECT_NAME": "STARLINK-4376",
    "OBJECT_ID": "22084AD",
    "EPOCH": "2025-11-11T04:06:41.372352",
    "MEAN_MOTION": 15.01269695,
    "ECCENTRICITY": 0.0004448,
    "INCLINATION": 97.6008,
    "RA_OF_ASC_NODE": 14.1749,
    "ARG_OF_PERICENTER": 84.9227,
    "MEAN_ANOMALY": 275.2505,
    "EPHEMERIS_TYPE": 0,
    "CLASSIFICATION_TYPE": "U",
    "NORAD_CAT_ID": 53216,
    "ELEMENT_SET_NO": 999,
    "REV_AT_EPOCH": 18153,
    "BSTAR": 3.7191000000000004e-05,
    "MEAN_MOTION_DOT": 4.19e-06,
    "MEAN_MOTION_DDOT": 0.0,
    "TLE_LINE1": "1 53216U 22084AD  25315.17131218  .00000419  00000+0  37191-4 0  9991",
    "TLE_LINE2": "2 53216  97.6008  14.1749 0004448  84.9227 275.2505 15.01269695181535",
    "COMMENT": "Grouped by shell and plane from TLE"
  },
  {
    "OBJECT_NAME": "STARLINK-4384",
    "OBJECT_ID": "22084AF",
    "EPOCH": "2025-11-11T04:12:52.193376",
    "MEAN_MOTION": 15.05652107,
    "ECCENTRICITY": 0.0001358,
    "INCLINATION": 97.6035,
    "RA_OF_ASC_NODE": 14.4663,
    "ARG_OF_PERICENTER": 95.2275,
    "MEAN_ANOMALY": 264.9107,
    "EPHEMERIS_TYPE": 0,
    "CLASSIFICATION_TYPE": "U",
    "NORAD_CAT_ID": 53218,
    "ELEMENT_SET_NO": 999,
    "REV_AT_EPOCH": 18207,
    "BSTAR": 4.5257e-05,
    "MEAN_MOTION_DOT": 5.92e-06,
    "MEAN_MOTION_DDOT": 0.0,
    "TLE_LINE1": "1 53218U 22084AF  25315.17560409  .00000592  00000+0  45257-4 0  9995",
    "TLE_LINE2": "2 53218  97.6035  14.4663 0001358  95.2275 264.9107 15.05652107182071",
    "COMMENT": "Grouped by shell and plane from TLE"
  },
  {
    "OBJECT_NAME": "STARLINK-4373",
    "OBJECT_ID": "22084AG",
    "EPOCH": "2025-11-11T03:17:01.950432",
    "MEAN_MOTION": 15.05658381,
    "ECCENTRICITY": 8.1e-05,
    "INCLINATION": 97.6035,
    "RA_OF_ASC_NODE": 14.3382,
    "ARG_OF_PERICENTER": 141.4941,
    "MEAN_ANOMALY": 218.6344,
    "EPHEMERIS_TYPE": 0,
    "CLASSIFICATION_TYPE": "U",
    "NORAD_CAT_ID": 53219,
    "ELEMENT_SET_NO": 999,
    "REV_AT_EPOCH": 18154,
    "BSTAR": 0.0,
    "MEAN_MOTION_DOT": -1.099e-05,
    "MEAN_MOTION_DDOT": 0.0,
    "TLE_LINE1": "1 53219U 22084AG  25315.13682813 -.00001099  00000+0 -71939-4 0  9997",
    "TLE_LINE2": "2 53219  97.6035  14.3382 0000810 141.4941 218.6344 15.05658381181545",
    "COMMENT": "Grouped by shell and plane from TLE"
  },
  {
    "OBJECT_NAME": "STARLINK-4363",
    "OBJECT_ID": "22084AH",
    "EPOCH": "2025-11-11T03:56:02.865120",
    "MEAN_MOTION": 15.01250487,
    "ECCENTRICITY": 0.0003797,
    "INCLINATION": 97.6025,
    "RA_OF_ASC_NODE": 14.1625,
    "ARG_OF_PERICENTER": 65.3058,
    "MEAN_ANOMALY": 294.8561,
    "EPHEMERIS_TYPE": 0,
    "CLASSIFICATION_TYPE": "U",
    "NORAD_CAT_ID": 53220,
    "ELEMENT_SET_NO": 999,
    "REV_AT_EPOCH": 18205,
    "BSTAR": 0.0,
    "MEAN_MOTION_DOT": -6.7e-07,
    "MEAN_MOTION_DDOT": 0.0,
    "TLE_LINE1": "1 53220U 22084AH  25315.16392205 -.00000067  00000+0 -70197-6 0  9996",
    "TLE_LINE2": "2 53220  97.6025  14.1625 0003797  65.3058 294.8561 15.01250487182059",
    "COMMENT": "Grouped by shell and plane from TLE"
  },
  {
    "OBJECT_NAME": "STARLINK-4377",
    "OBJECT_ID": "22084AJ",
    "EPOCH": "2025-11-11T03:45:21.447936",
    "MEAN_MOTION": 15.01270947,
    "ECCENTRICITY": 0.0002031,
    "INCLINATION": 97.6028,
    "RA_OF_ASC_NODE": 14.1535,
    "ARG_OF_PERICENTER": 88.0464,
    "MEAN_ANOMALY": 272.0993,
    "EPHEMERIS_TYPE": 0,
    "CLASSIFICATION_TYPE": "U",
    "NORAD_CAT_ID": 53221,
    "ELEMENT_SET_NO": 999,
    "REV_AT_EPOCH": 18153,
    "BSTAR": 6.9862e-05,
    "MEAN_MOTION_DOT": 8.39e-06,
    "MEAN_MOTION_DDOT": 0.0,
    "TLE_LINE1": "1 53221U 22084AJ  25315.15649824  .00000839  00000+0  69862-4 0  9998",
    "TLE_LINE2": "2 53221  97.6028  14.1535 0002031  88.0464 272.0993 15.01270947181538",
    "COMMENT": "Grouped by shell and plane from TLE"
  },
  {
    "OBJECT_NAME": "STARLINK-4356",
    "OBJECT_ID": "22084AM",
    "EPOCH": "2025-11-11T03:50:41.343936",
    "MEAN_MOTION": 15.01257033,
    "ECCENTRICITY": 0.000314,
    "INCLINATION": 97.6036,
    "RA_OF_ASC_NODE": 14.1579,
    "ARG_OF_PERICENTER": 65.8305,
    "MEAN_ANOMALY": 294.3247,
    "EPHEMERIS_TYPE": 0,
    "CLASSIFICATION_TYPE": "U",
    "NORAD_CAT_ID": 53224,
    "ELEMENT_SET_NO": 999,
    "REV_AT_EPOCH": 18153,
    "BSTAR": 4.3215e-05,
    "MEAN_MOTION_DOT": 4.97e-06,
    "MEAN_MOTION_DDOT": 0.0,
    "TLE_LINE1": "1 53224U 22084AM  25315.16020074  .00000497  00000+0  43215-4 0  9996",
    "TLE_LINE2": "2 53224  97.6036  14.1579 0003140  65.8305 294.3247 15.01257033181537",
    "COMMENT": "Grouped by shell and plane from TLE"
  }
]